COSMOS 1892             
1 18421U 87088A   25302.89659143  .00227403  17491-4  73729-3 0  9999
2 18421  82.4696  93.0367 0004750 322.0868  38.0069 15.90688866 84304
SL-14 R/B               
1 18749U 88001B   25302.78982116  .00000667  00000+0  74586-4 0  9992
2 18749  82.5114 318.4949 0016910 314.9536  45.0308 14.85352840 22596
COSMOS 1933             
1 18958U 88020A   25302.68632577  .00006002  00000+0  30588-3 0  9999
2 18958  82.5168  20.3835 0003089 301.8247  58.2685 15.16594276 30361
SL-3 R/B                
1 19046U 88032B   25302.90597913  .00008094  00000+0  39723-3 0  9993
2 19046  97.5042 281.9613 0026177 333.6643  26.3258 15.18054124 32259
SL-16 R/B               
1 19120U 88039B   25302.84788772 -.00000016  00000+0  15119-4 0  9992
2 19120  71.0159 345.2069 0021995 186.9932 173.0890 14.19585990939810
COSMOS 1953             
1 19210U 88050A   25302.98371259  .00008009  00000+0  30765-3 0  9990
2 19210  82.5067 289.4695 0010593 215.3500 144.7037 15.26232953 17833
SL-8 R/B                
1 19257U 88053B   25302.54857505  .00000356  00000+0  12415-3 0  9998
2 19257  74.0490 354.1679 0020647 210.6566 313.6535 14.38819184957734
COSMOS 1975             
1 19573U 88093A   25302.91177977  .00013314  00000+0  52495-3 0  9992
2 19573  82.5202 248.6664 0009376 274.3265  85.6901 15.25413625999444
SL-14 R/B               
1 19574U 88093B   25302.91544844  .00000583  00000+0  64438-4 0  9999
2 19574  82.5317 164.7919 0022205 109.3031 261.7445 14.85483729981625
SL-16 R/B               
1 19650U 88102B   25302.73478329  .00000273  00000+0  16218-3 0  9997
2 19650  70.9998  67.0296 0015496 217.6176 142.3865 14.16129174908350
INTERCOSMOS 24          
1 20261U 89080A   25302.96558082  .00000625  00000+0  18495-3 0  9993
2 20261  82.6099 189.4161 1187594 236.0951 112.1640 12.59346212650346
SL-14 R/B               
1 20262U 89080C   25302.89730992  .00000329  00000+0  89809-4 0  9997
2 20262  82.5908 257.1570 1231500 123.7240 248.7435 12.50369291643806
