CCSDS_OMM_VERS = 2.0
CREATION_DATE  = 
ORIGINATOR     = 

OBJECT_NAME    = COSMOS 1892
OBJECT_ID      = 1987-088A
CENTER_NAME    = EARTH
REF_FRAME      = TEME
TIME_SYSTEM    = UTC
MEAN_ELEMENT_THEORY = SGP/SGP4

EPOCH          = 2025-10-29T21:31:05.499552
MEAN_MOTION    = 15.90688866
ECCENTRICITY   = .00047509
INCLINATION    = 82.4696
RA_OF_ASC_NODE = 93.0367
ARG_OF_PERICENTER = 322.0868
MEAN_ANOMALY   = 38.0069

EPHEMERIS_TYPE = 0
CLASSIFICATION_TYPE = U
NORAD_CAT_ID   = 18421
ELEMENT_SET_NO = 999
REV_AT_EPOCH   = 8430
BSTAR          = .73729407E-3
MEAN_MOTION_DOT = .227403E-2
MEAN_MOTION_DDOT = .1749136E-4

CCSDS_OMM_VERS = 2.0
CREATION_DATE  = 
ORIGINATOR     = 

OBJECT_NAME    = SL-14 R/B
OBJECT_ID      = 1988-001B
CENTER_NAME    = EARTH
REF_FRAME      = TEME
TIME_SYSTEM    = UTC
MEAN_ELEMENT_THEORY = SGP/SGP4

EPOCH          = 2025-10-29T18:57:20.548224
MEAN_MOTION    = 14.85352840
ECCENTRICITY   = .00169106
INCLINATION    = 82.5114
RA_OF_ASC_NODE = 318.4949
ARG_OF_PERICENTER = 314.9536
MEAN_ANOMALY   = 45.0308

EPHEMERIS_TYPE = 0
CLASSIFICATION_TYPE = U
NORAD_CAT_ID   = 18749
ELEMENT_SET_NO = 999
REV_AT_EPOCH   = 2259
BSTAR          = .74585881E-4
MEAN_MOTION_DOT = .667E-5
MEAN_MOTION_DDOT = 0

CCSDS_OMM_VERS = 2.0
CREATION_DATE  = 
ORIGINATOR     = 

OBJECT_NAME    = COSMOS 1933
OBJECT_ID      = 1988-020A
CENTER_NAME    = EARTH
REF_FRAME      = TEME
TIME_SYSTEM    = UTC
MEAN_ELEMENT_THEORY = SGP/SGP4

EPOCH          = 2025-10-29T16:28:18.546528
MEAN_MOTION    = 15.16594276
ECCENTRICITY   = .00030897
INCLINATION    = 82.5168
RA_OF_ASC_NODE = 20.3835
ARG_OF_PERICENTER = 301.8247
MEAN_ANOMALY   = 58.2685

EPHEMERIS_TYPE = 0
CLASSIFICATION_TYPE = U
NORAD_CAT_ID   = 18958
ELEMENT_SET_NO = 999
REV_AT_EPOCH   = 3036
BSTAR          = .30588015E-3
MEAN_MOTION_DOT = .6002E-4
MEAN_MOTION_DDOT = 0

CCSDS_OMM_VERS = 2.0
CREATION_DATE  = 
ORIGINATOR     = 

OBJECT_NAME    = SL-3 R/B
OBJECT_ID      = 1988-032B
CENTER_NAME    = EARTH
REF_FRAME      = TEME
TIME_SYSTEM    = UTC
MEAN_ELEMENT_THEORY = SGP/SGP4

EPOCH          = 2025-10-29T21:44:36.596832
MEAN_MOTION    = 15.18054124
ECCENTRICITY   = .00261771
INCLINATION    = 97.5042
RA_OF_ASC_NODE = 281.9613
ARG_OF_PERICENTER = 333.6643
MEAN_ANOMALY   = 26.3258

EPHEMERIS_TYPE = 0
CLASSIFICATION_TYPE = U
NORAD_CAT_ID   = 19046
ELEMENT_SET_NO = 999
REV_AT_EPOCH   = 3225
BSTAR          = .39723261E-3
MEAN_MOTION_DOT = .8094E-4
MEAN_MOTION_DDOT = 0

CCSDS_OMM_VERS = 2.0
CREATION_DATE  = 
ORIGINATOR     = 

OBJECT_NAME    = SL-16 R/B
OBJECT_ID      = 1988-039B
CENTER_NAME    = EARTH
REF_FRAME      = TEME
TIME_SYSTEM    = UTC
MEAN_ELEMENT_THEORY = SGP/SGP4

EPOCH          = 2025-10-29T20:20:57.499008
MEAN_MOTION    = 14.19585990
ECCENTRICITY   = .00219958
INCLINATION    = 71.0159
RA_OF_ASC_NODE = 345.2069
ARG_OF_PERICENTER = 186.9932
MEAN_ANOMALY   = 173.0890

EPHEMERIS_TYPE = 0
CLASSIFICATION_TYPE = U
NORAD_CAT_ID   = 19120
ELEMENT_SET_NO = 999
REV_AT_EPOCH   = 93981
BSTAR          = .15118577E-4
MEAN_MOTION_DOT = -.16E-6
MEAN_MOTION_DDOT = 0

CCSDS_OMM_VERS = 2.0
CREATION_DATE  = 
ORIGINATOR     = 

OBJECT_NAME    = COSMOS 1953
OBJECT_ID      = 1988-050A
CENTER_NAME    = EARTH
REF_FRAME      = TEME
TIME_SYSTEM    = UTC
MEAN_ELEMENT_THEORY = SGP/SGP4

EPOCH          = 2025-10-29T23:36:32.767776
MEAN_MOTION    = 15.26232953
ECCENTRICITY   = .00105933
INCLINATION    = 82.5067
RA_OF_ASC_NODE = 289.4695
ARG_OF_PERICENTER = 215.3500
MEAN_ANOMALY   = 144.7037

EPHEMERIS_TYPE = 0
CLASSIFICATION_TYPE = U
NORAD_CAT_ID   = 19210
ELEMENT_SET_NO = 999
REV_AT_EPOCH   = 1783
BSTAR          = .30765236E-3
MEAN_MOTION_DOT = .8009E-4
MEAN_MOTION_DDOT = 0

CCSDS_OMM_VERS = 2.0
CREATION_DATE  = 
ORIGINATOR     = 

OBJECT_NAME    = SL-8 R/B
OBJECT_ID      = 1988-053B
CENTER_NAME    = EARTH
REF_FRAME      = TEME
TIME_SYSTEM    = UTC
MEAN_ELEMENT_THEORY = SGP/SGP4

EPOCH          = 2025-10-29T13:09:56.884320
MEAN_MOTION    = 14.38819184
ECCENTRICITY   = .00206479
INCLINATION    = 74.0490
RA_OF_ASC_NODE = 354.1679
ARG_OF_PERICENTER = 210.6566
MEAN_ANOMALY   = 313.6535

EPHEMERIS_TYPE = 0
CLASSIFICATION_TYPE = U
NORAD_CAT_ID   = 19257
ELEMENT_SET_NO = 999
REV_AT_EPOCH   = 95773
BSTAR          = .12415162E-3
MEAN_MOTION_DOT = .356E-5
MEAN_MOTION_DDOT = 0

CCSDS_OMM_VERS = 2.0
CREATION_DATE  = 
ORIGINATOR     = 

OBJECT_NAME    = COSMOS 1975
OBJECT_ID      = 1988-093A
CENTER_NAME    = EARTH
REF_FRAME      = TEME
TIME_SYSTEM    = UTC
MEAN_ELEMENT_THEORY = SGP/SGP4

EPOCH          = 2025-10-29T21:52:57.772128
MEAN_MOTION    = 15.25413625
ECCENTRICITY   = .00093762
INCLINATION    = 82.5202
RA_OF_ASC_NODE = 248.6664
ARG_OF_PERICENTER = 274.3265
MEAN_ANOMALY   = 85.6901

EPHEMERIS_TYPE = 0
CLASSIFICATION_TYPE = U
NORAD_CAT_ID   = 19573
ELEMENT_SET_NO = 999
REV_AT_EPOCH   = 99944
BSTAR          = .52495232E-3
MEAN_MOTION_DOT = .13314E-3
MEAN_MOTION_DDOT = 0

CCSDS_OMM_VERS = 2.0
CREATION_DATE  = 
ORIGINATOR     = 

OBJECT_NAME    = SL-14 R/B
OBJECT_ID      = 1988-093B
CENTER_NAME    = EARTH
REF_FRAME      = TEME
TIME_SYSTEM    = UTC
MEAN_ELEMENT_THEORY = SGP/SGP4

EPOCH          = 2025-10-29T21:58:14.745216
MEAN_MOTION    = 14.85483729
ECCENTRICITY   = .00222055
INCLINATION    = 82.5317
RA_OF_ASC_NODE = 164.7919
ARG_OF_PERICENTER = 109.3031
MEAN_ANOMALY   = 261.7445

EPHEMERIS_TYPE = 0
CLASSIFICATION_TYPE = U
NORAD_CAT_ID   = 19574
ELEMENT_SET_NO = 999
REV_AT_EPOCH   = 98162
BSTAR          = .64438108E-4
MEAN_MOTION_DOT = .583E-5
MEAN_MOTION_DDOT = 0

CCSDS_OMM_VERS = 2.0
CREATION_DATE  = 
ORIGINATOR     = 

OBJECT_NAME    = SL-16 R/B
OBJECT_ID      = 1988-102B
CENTER_NAME    = EARTH
REF_FRAME      = TEME
TIME_SYSTEM    = UTC
MEAN_ELEMENT_THEORY = SGP/SGP4

EPOCH          = 2025-10-29T17:38:05.276256
MEAN_MOTION    = 14.16129174
ECCENTRICITY   = .00154962
INCLINATION    = 70.9998
RA_OF_ASC_NODE = 67.0296
ARG_OF_PERICENTER = 217.6176
MEAN_ANOMALY   = 142.3865

EPHEMERIS_TYPE = 0
CLASSIFICATION_TYPE = U
NORAD_CAT_ID   = 19650
ELEMENT_SET_NO = 999
REV_AT_EPOCH   = 90835
BSTAR          = .1621832E-3
MEAN_MOTION_DOT = .273E-5
MEAN_MOTION_DDOT = 0

CCSDS_OMM_VERS = 2.0
CREATION_DATE  = 
ORIGINATOR     = 

OBJECT_NAME    = INTERCOSMOS 24
OBJECT_ID      = 1989-080A
CENTER_NAME    = EARTH
REF_FRAME      = TEME
TIME_SYSTEM    = UTC
MEAN_ELEMENT_THEORY = SGP/SGP4

EPOCH          = 2025-10-29T23:10:26.182848
MEAN_MOTION    = 12.59346212
ECCENTRICITY   = .11875949
INCLINATION    = 82.6099
RA_OF_ASC_NODE = 189.4161
ARG_OF_PERICENTER = 236.0951
MEAN_ANOMALY   = 112.1640

EPHEMERIS_TYPE = 0
CLASSIFICATION_TYPE = U
NORAD_CAT_ID   = 20261
ELEMENT_SET_NO = 999
REV_AT_EPOCH   = 65034
BSTAR          = .18494771E-3
MEAN_MOTION_DOT = .625E-5
MEAN_MOTION_DDOT = 0

CCSDS_OMM_VERS = 2.0
CREATION_DATE  = 
ORIGINATOR     = 

OBJECT_NAME    = SL-14 R/B
OBJECT_ID      = 1989-080C
CENTER_NAME    = EARTH
REF_FRAME      = TEME
TIME_SYSTEM    = UTC
MEAN_ELEMENT_THEORY = SGP/SGP4

EPOCH          = 2025-10-29T21:32:07.577088
MEAN_MOTION    = 12.50369291
ECCENTRICITY   = .12315003
INCLINATION    = 82.5908
RA_OF_ASC_NODE = 257.1570
ARG_OF_PERICENTER = 123.7240
MEAN_ANOMALY   = 248.7435

EPHEMERIS_TYPE = 0
CLASSIFICATION_TYPE = U
NORAD_CAT_ID   = 20262
ELEMENT_SET_NO = 999
REV_AT_EPOCH   = 64380
BSTAR          = .89808668E-4
MEAN_MOTION_DOT = .329E-5
MEAN_MOTION_DDOT = 0

